NORAD_CAT_ID,OBJECT_NAME,OBJECT_TYPE,EPOCH,MEAN_MOTION,ECCENTRICITY,INCLINATION,RA_OF_ASC_NODE,ARG_OF_PERICENTER,MEAN_ANOMALY,BSTAR,MEAN_MOTION_DOT,MEAN_MOTION_DDOT,TLE_LINE0,TLE_LINE1,TLE_LINE2,SEMIMAJOR_AXIS,PERIOD,APOGEE,PERIGEE,DECAYED
49135.0,STARLINK-3073,PAYLOAD,2021-11-01 14:00:01,15.69710132,0.0004152,70.0002,350.6831,297.1297,215.0432,0.00060281,0.00072265,0.0,0 STARLINK-3073,1 49135U 21082F   21305.58334491  .00072265  00000-0  60281-3 0  9995,2 49135  70.0002 350.6831 0004152 297.1297 215.0432 15.69710132  3687,6737.863,91.737,362.526,356.931,0.0
49135.0,STARLINK-3073,PAYLOAD,2021-11-01 22:00:00,15.69750405,0.0004102,70.0003,349.7459,292.5049,302.7786,-0.00046713,-0.00055621,0.0,0 STARLINK-3073,1 49135U 21082F   21305.91667824 -.00055621  00000-0 -46713-3 0  9994,2 49135  70.0003 349.7459 0004102 292.5049 302.7786 15.69750405  7768,6737.748000000001,91.734,362.377,356.849,0.0
49135.0,STARLINK-3073,PAYLOAD,2021-11-02 14:00:01,15.69703223,0.0004401,70.0002,347.872,295.3185,106.1501,0.00048307,0.00057755,0.0,0 STARLINK-3073,1 49135U 21082F   21306.58334491  .00057755  00000-0  48307-3 0  9998,2 49135  70.0002 347.8720 0004401 295.3185 106.1501 15.69703223  3696,6737.8830000000025,91.737,362.713,356.783,0.0
49135.0,STARLINK-3073,PAYLOAD,2021-11-02 22:00:00,15.69711525,0.0004253,70.0,346.9352,290.6537,193.9362,0.00072503,0.00087121,0.0,0 STARLINK-3073,1 49135U 21082F   21306.91667824  .00087121  00000-0  72503-3 0  9999,2 49135  70.0000 346.9352 0004253 290.6537 193.9362 15.69711525  3670,6737.859,91.737,362.59,356.8590000000001,0.0
49135.0,STARLINK-3073,PAYLOAD,2021-11-03 14:00:01,15.69759775,0.0004283,69.9993,345.0612,296.2671,354.598,-0.0002047,-0.00024593,0.0,0 STARLINK-3073,1 49135U 21082F   21307.58334491 -.00024593  00000-0 -20470-3 0  9996,2 49135  69.9993 345.0612 0004283 296.2671 354.5980 15.69759775  8025,6737.721,91.734,362.472,356.701,0.0
49135.0,STARLINK-3073,PAYLOAD,2021-11-03 22:00:00,15.69696464,0.0004027,69.9993,344.124,291.7943,82.2073,0.00071802,0.0008621,0.0,0 STARLINK-3073,1 49135U 21082F   21307.91667824  .00086210  00000-0  71802-3 0  9999,2 49135  69.9993 344.1240 0004027 291.7943  82.2073 15.69696464  3680,6737.901999999999,91.737,362.481,357.05400000000014,0.0
49135.0,STARLINK-3073,PAYLOAD,2021-11-04 06:00:00,15.69786479,0.0004057,69.9995,343.1869999999999,292.6698,164.4238,-0.00040648,-0.00048539,0.0,0 STARLINK-3073,1 49135U 21082F   21308.25001157 -.00048539  00000-0 -40648-3 0  9996,2 49135  69.9995 343.1870 0004057 292.6698 164.4238 15.69786479  8126,6737.645,91.732,362.24300000000005,356.776,0.0
49135.0,STARLINK-3073,PAYLOAD,2021-11-04 14:00:01,15.69757977,0.0004011,69.9991,342.2498,297.5264,242.7467,2.9564e-05,3.32e-05,0.0,0 STARLINK-3073,1 49135U 21082F   21308.58334491  .00003320  00000-0  29564-4 0  9994,2 49135  69.9991 342.2498 0004011 297.5264 242.7467 15.69757977  3671,6737.726,91.734,362.294,356.889,0.0
49135.0,STARLINK-3073,PAYLOAD,2021-11-04 22:00:00,15.69758903,0.0003756,69.9991,341.3128,293.4405,330.028,0.0011182,0.00135514,0.0,0 STARLINK-3073,1 49135U 21082F   21308.91667824  .00135514  00000-0  11182-2 0  9996,2 49135  69.9991 341.3128 0003756 293.4405 330.0280 15.69758903  8239,6737.724,91.734,362.12,357.05800000000005,0.0
49135.0,STARLINK-3073,PAYLOAD,2021-11-05 14:00:01,15.69813596,0.0004093,69.9983,339.4384,297.6148,132.2453,-0.0013027,-0.00153356,0.0,0 STARLINK-3073,1 49135U 21082F   21309.58334491 -.00153356  00000-0 -13027-2 0  9997,2 49135  69.9983 339.4384 0004093 297.6148 132.2453 15.69813596  8332,6737.566999999999,91.731,362.19,356.675,0.0
49135.0,STARLINK-3073,PAYLOAD,2021-11-05 22:00:00,15.69677816,0.0003943,69.9984,338.5009,291.8908,221.1226,-0.0014787,-0.00172671,0.0,0 STARLINK-3073,1 49135U 21082F   21309.91667824 -.00172671  00000-0 -14787-2 0  9998,2 49135  69.9984 338.5009 0003943 291.8908 221.1226 15.69677816  3727,6737.956,91.739,362.478,357.164,0.0
49135.0,STARLINK-3073,PAYLOAD,2021-11-06 04:00:01,15.69503298,0.0004008999999999,69.9988,337.7985,290.9698,194.3326,0.0007107999999999,0.00084647,0.0,0 STARLINK-3073,1 49135U 21082F   21310.16668981  .00084647  00000-0  71080-3 0  9995,2 49135  69.9988 337.7985 0004009 290.9698 194.3326 15.69503298  8421,6738.455,91.749,363.022,357.619,0.0
49135.0,STARLINK-3073,PAYLOAD,2021-11-06 08:00:03,15.69507724,0.0004032,69.9987,337.3298,294.3404,52.4585,0.001464,0.00176532,0.0,0 STARLINK-3073,1 49135U 21082F   21310.33336806  .00176532  00000-0  14640-2 0  9995,2 49135  69.9987 337.3298 0004032 294.3404  52.4585 15.69507724  3662,6738.443,91.749,363.025,357.591,0.0
49135.0,STARLINK-3073,PAYLOAD,2021-11-06 14:00:01,15.69608577,0.0004217,69.9985,336.6271,296.0896,22.8075,0.0013543,0.00163722,0.0,0 STARLINK-3073,1 49135U 21082F   21310.58335648  .00163722  00000-0  13543-2 0  9993,2 49135  69.9985 336.6271 0004217 296.0896  22.8075 15.69608577  8491,6738.154,91.743,362.86,357.17800000000005,0.0
49135.0,STARLINK-3073,PAYLOAD,2021-11-06 16:00:00,15.69654871,0.0004136,69.9984,336.39300000000014,295.2878,134.2825,0.00099949,0.00120375,0.0,0 STARLINK-3073,1 49135U 21082F   21310.66667824  .00120375  00000-0  99949-3 0  9998,2 49135  69.9984 336.3930 0004136 295.2878 134.2825 15.69654871  3663,6738.022,91.74,362.673,357.1,0.0
49135.0,STARLINK-3073,PAYLOAD,2021-11-07 06:00:02,15.69822729,0.0004235,69.9987,334.7534,291.9374,193.1231,-0.00016091,-0.00019439,0.0,0 STARLINK-3073,1 49135U 21082F   21311.25002315 -.00019439  00000-0 -16091-3 0  9999,2 49135  69.9987 334.7534 0004235 291.9374 193.1231 15.69822729  8593,6737.541,91.73,362.26,356.55300000000005,0.0
49135.0,STARLINK-3073,PAYLOAD,2021-11-07 14:00:01,15.69847534,0.0004232,69.998,333.816,295.0802,273.1185,-0.0004058,-0.00048583,0.0,0 STARLINK-3073,1 49135U 21082F   21311.58334491 -.00048583  00000-0 -40580-3 0  9990,2 49135  69.9980 333.8160 0004232 295.0802 273.1185 15.69847534  3671,6737.47,91.729,362.187,356.4840000000001,0.0
49135.0,STARLINK-3073,PAYLOAD,2021-11-07 22:00:01,15.69736715,0.0003943,69.9983,332.8789,291.0612,0.4352,0.00067199,0.0008075,0.0,0 STARLINK-3073,1 49135U 21082F   21311.91668981  .00080750  00000-0  67199-3 0  9996,2 49135  69.9983 332.8789 0003943 291.0612   0.4352 15.69736715  3656,6737.7869999999975,91.735,362.309,356.996,0.0
49135.0,STARLINK-3073,PAYLOAD,2021-11-08 14:00:01,15.69744666,0.0003822,69.9985,331.0041,298.4037,159.3163,2.4895e-05,2.7600000000000014e-05,0.0,0 STARLINK-3073,1 49135U 21082F   21312.58334491  .00002760  00000-0  24895-4 0  9998,2 49135  69.9985 331.0041 0003822 298.4037 159.3163 15.69744666  8808,6737.765,91.735,362.205,357.05400000000014,0.0
49135.0,STARLINK-3073,PAYLOAD,2021-11-08 22:00:00,15.69707741,0.0003663,69.9987,330.0674,292.6169,248.2336,0.00080838,0.00097253,0.0,0 STARLINK-3073,1 49135U 21082F   21312.91667824  .00097253  00000-0  80838-3 0  9993,2 49135  69.9987 330.0674 0003663 292.6169 248.2336 15.69707741  3668,6737.87,91.737,362.203,357.267,0.0
49135.0,STARLINK-3073,PAYLOAD,2021-11-09 14:00:01,15.69808283,0.0003998,69.9984,328.1932,296.9922,50.1908,-0.00052125,-0.00062139,0.0,0 STARLINK-3073,1 49135U 21082F   21313.58335648 -.00062139  00000-0 -52125-3 0  9998,2 49135  69.9984 328.1932 0003998 296.9922  50.1908 15.69808283  8961,6737.583000000001,91.731,362.141,356.754,0.0
49135.0,STARLINK-3073,PAYLOAD,2021-11-09 18:00:00,15.69801903,0.0003907,69.9986,327.7246,294.1157,274.5915,-0.00092487,-0.00109446,0.0,0 STARLINK-3073,1 49135U 21082F   21313.75001157 -.00109446  00000-0 -92487-3 0  9990,2 49135  69.9986 327.7246 0003907 294.1157 274.5915 15.69801903  3671,6737.601,91.731,362.098,356.833,0.0
49135.0,STARLINK-3073,PAYLOAD,2021-11-10 02:00:01,15.6975555,0.0003978,69.9989,326.7875,289.7656,2.142,1.1905e-05,1.209e-05,0.0,0 STARLINK-3073,1 49135U 21082F   21314.08335648  .00001209  00000-0  11905-4 0  9995,2 49135  69.9989 326.7875 0003978 289.7656   2.1420 15.69755550  3709,6737.733,91.734,362.279,356.918,0.0
49135.0,STARLINK-3073,PAYLOAD,2021-11-10 06:00:00,15.69753372,0.0004064,69.999,326.3185,293.0607,220.3519,-3.3057e-06,-6.07e-06,0.0,0 STARLINK-3073,1 49135U 21082F   21314.25001157 -.00000607  00000-0 -33057-5 0  9995,2 49135  69.9990 326.3185 0004064 293.0607 220.3519 15.69753372  9060,6737.74,91.734,362.343,356.866,0.0
49135.0,STARLINK-3073,PAYLOAD,2021-11-10 22:00:00,15.69676817,0.0003651,69.999,324.4447,291.7916,27.8112,0.00084862,0.00102032,0.0,0 STARLINK-3073,1 49135U 21082F   21314.91667824  .00102032  00000-0  84862-3 0  9998,2 49135  69.9990 324.4447 0003651 291.7916  27.8112 15.69676817  9178,6737.959,91.739,362.284,357.36400000000015,0.0
49135.0,STARLINK-3073,PAYLOAD,2021-11-11 14:00:01,15.697656699999998,0.0003856,69.9985,322.5713,296.4356,189.365,-0.00014904,-0.0001798,0.0,0 STARLINK-3073,1 49135U 21082F   21315.58334491 -.00017980  00000-0 -14904-3 0  9992,2 49135  69.9985 322.5713 0003856 296.4356 189.3650 15.69765670  9272,6737.704000000002,91.733,362.168,356.971,0.0
49135.0,STARLINK-3073,PAYLOAD,2021-11-11 22:00:00,15.69722987,0.0003741,69.9984,321.6343,290.0129,278.9269,0.00069316,0.00083275,0.0,0 STARLINK-3073,1 49135U 21082F   21315.91667824  .00083275  00000-0  69316-3 0  9993,2 49135  69.9984 321.6343 0003741 290.0129 278.9269 15.69722987  3674,6737.8269999999975,91.736,362.212,357.171,0.0
49135.0,STARLINK-3073,PAYLOAD,2021-11-12 06:00:00,15.69775111,0.0003865,69.9985,320.6972,293.5797,358.4975,-3.9007e-05,-4.872e-05,0.0,0 STARLINK-3073,1 49135U 21082F   21316.25001157 -.00004872  00000-0 -39007-4 0  9995,2 49135  69.9985 320.6972 0003865 293.5797 358.4975 15.69775111  9387,6737.677,91.733,362.147,356.93800000000016,0.0
49135.0,STARLINK-3073,PAYLOAD,2021-11-12 14:00:01,15.6980231,0.0003955,69.9983,319.7602,295.6331,79.5983,-0.00065807,-0.00078225,0.0,0 STARLINK-3073,1 49135U 21082F   21316.58334491 -.00078225  00000-0 -65807-3 0  9990,2 49135  69.9983 319.7602 0003955 295.6331  79.5983 15.69802310  3691,6737.6,91.731,362.129,356.8,0.0
